STARLINK-37393          
1 68776U 26086L   26117.75051899 -.00555228  10324-3 -14607-2 0  9999
2 68776  97.2785 153.1929 0000422 161.5052 198.6239 15.94748653  1216
