{
  "norad_id": 68776,
  "name": "STARLINK-37393",
  "history": [
    {
      "epoch": "2026-04-27T18:00:44.840736Z",
      "apogee_km": 289.2961832975161,
      "perigee_km": 288.7334756831078,
      "latitude_deg": -3.697118649556853e-06,
      "longitude_deg": 27.27021691184897,
      "height_km": 292.4761991372137,
      "semi_major_axis_km": 6667.151829490312,
      "eccentricity": 4.22e-05,
      "inclination_deg": 97.2785,
      "raan_deg": 153.1929,
      "arg_perigee_deg": 161.5052,
      "mean_anomaly_deg": 198.6239,
      "mean_motion_rev_day": 15.94748653
    }
  ]
}